COSMOS 2058             
1 20465U 90010A   26164.89269322  .00003975  00000+0  22976-3 0  9999
2 20465  82.4667 312.6036 0009607  12.5804 347.5665 15.11992237956775
SL-14 R/B               
1 20466U 90010B   26164.52594176  .00000366  00000+0  41352-4 0  9999
2 20466  82.5016 177.3834 0019411 348.6604  11.4171 14.83644167942691
SL-14 R/B               
1 20511U 90018B   26164.90601340  .00000352  00000+0  41096-4 0  9992
2 20511  82.5209 133.1745 0017263 131.7783 228.4910 14.82214237936839
HST                     
1 20580U 90037B   26164.23141094  .00006133  00000+0  19317-3 0  9993
2 20580  28.4712 107.6084 0001932 101.0971 258.9842 15.30704754787962
SL-16 R/B               
1 20625U 90046B   26164.90844777  .00000232  00000+0  14427-3 0  9996
2 20625  70.9995  95.8338 0013620 166.6902 193.4583 14.15025228862003
COSMOS 2084             
1 20663U 90055A   26164.94095427  .00002050  00000+0  15328-3 0  9993
2 20663  62.7910   7.1711 0005510 273.5813  86.4657 15.06104058950810
SL-6 R/B(2)             
1 20666U 90055D   26164.72494546  .00001539  00000+0  12370-3 0  9992
2 20666  62.7824 287.1581 0040064   4.6309 355.5153 15.03993046952631
SL-8 R/B                
1 20775U 90078B   26164.70829701  .00019398  00000+0  54632-3 0  9990
2 20775  82.9003 164.7880 0351715  50.1980 312.9645 14.92184562823605
SL-8 R/B                
1 21088U 91006B   26164.94217916  .00000029  00000+0  13112-4 0  9995
2 21088  82.9424  98.4477 0023547 123.1903 308.9532 13.77505603777322
OKEAN-3                 
1 21397U 91039A   26164.94792227  .00002425  00000+0  16728-3 0  9994
2 21397  82.5158 243.5220 0014349  10.1406 350.0107 15.05309866879513
COSMOS 2151             
1 21422U 91042A   26164.92533635  .00001685  00000+0  13163-3 0  9998
2 21422  82.4960 350.8291 0013825  93.7407 266.5398 15.00429696877620
SL-14 R/B               
1 21423U 91042B   26164.91185238  .00000342  00000+0  40200-4 0  9992
2 21423  82.4925 129.9670 0015485 286.7267  73.2247 14.81900655867329
ERS-1                   
1 21574U 91050A   26164.89795761  .00000337  00000+0  12224-3 0  9991
2 21574  98.7797 185.5155 0030707 277.1780  82.5917 14.39516093829571
ARIANE 40 R/B           
1 21610U 91050F   26164.72057458  .00000264  00000+0  91359-4 0  9994
2 21610  98.1877 213.2724 0004118 128.7489 231.4071 14.42955209832840
INTERCOSMOS 25          
1 21819U 91086A   26164.48024275  .00000555  00000+0  11075-3 0  9997
2 21819  82.6052 252.0532 1484152 270.3971  72.7791 12.12191203508298
SL-8 R/B                
1 21876U 92008B   26164.87634006  .00000144  00000+0  13287-3 0  9998
2 21876  82.9264 196.2493 0033641 224.1876 309.5510 13.75976063722649
SL-8 R/B                
1 21938U 92020B   26164.85416874  .00000048  00000+0  33705-4 0  9991
2 21938  82.9306  82.3329 0029932  31.6551  32.6053 13.75548487714357
USA 81                  
1 21949U 92023A   26164.85189276  .00000155  00000+0  50001-4 0  9996
2 21949  85.0077  75.9324 0002772  87.6389 272.5121 14.32397417108553
COSMOS 2219             
1 22219U 92076A   26164.72447711  .00000190  00000+0  12417-3 0  9999
2 22219  71.0576 177.3108 0016442  49.8192 310.4367 14.14097046731956
SL-16 R/B               
1 22220U 92076B   26164.93278737  .00000023  00000+0  35299-4 0  9993
2 22220  71.0004 345.6370 0014608 302.9282 165.3702 14.16871274735465
COSMOS 2221             
1 22236U 92080A   26164.79585815  .00001326  00000+0  11428-3 0  9991
2 22236  82.5030 187.0138 0013022 224.4811 135.5367 14.96525610795160
SL-16 R/B               
1 22285U 92093B   26164.70896754 -.00000290  00000+0 -12389-3 0  9995
2 22285  71.0199 162.6934 0004152 194.2080 165.8927 14.15462839726742
COSMOS 2228             
1 22286U 92094A   26164.94733369  .00001943  00000+0  16377-3 0  9990
2 22286  82.5173 145.1460 0017202 343.5948  16.4715 14.97576185790460
SL-16 R/B               
1 22566U 93016B   26164.90071783  .00000329  00000+0  19313-3 0  9997
2 22566  71.0083  13.1104 0010456 188.0439 172.0518 14.15312117715789
COSMOS 2242             
1 22626U 93024A   26164.77160846  .00001624  00000+0  13901-3 0  9993
2 22626  82.5179 174.8107 0015670 348.2458  11.8396 14.96894345794767
SL-16 R/B               
1 22803U 93059B   26164.74915755  .00000179  00000+0  11222-3 0  9990
2 22803  70.9886 168.5540 0015125  59.9219 300.3403 14.17247570693147
ARIANE 40 R/B           
1 22830U 93061H   26164.92347221  .00000172  00000+0  78715-4 0  9994
2 22830  98.4819 231.8483 0010673   6.1306 354.0007 14.32906645707887
COSMOS 2278             
1 23087U 94023A   26164.92294808  .00000222  00000+0  14050-3 0  9997
2 23087  71.0548 333.7548 0010596 246.9956 113.0050 14.14396920658415
SL-16 R/B               
1 23088U 94023B   26164.92616819  .00000332  00000+0  19582-3 0  9995
2 23088  70.9994 228.7798 0002981 189.3263 170.7804 14.15023122659701
SL-16 R/B               
1 23343U 94074B   26164.96938046  .00000388  00000+0  58533-4 0  9999
2 23343  97.6992 191.8244 0005072 267.2030 157.9508 14.79499900701489
