OBJECT_NAME,OBJECT_ID,EPOCH,MEAN_MOTION,ECCENTRICITY,INCLINATION,RA_OF_ASC_NODE,ARG_OF_PERICENTER,MEAN_ANOMALY,EPHEMERIS_TYPE,CLASSIFICATION_TYPE,NORAD_CAT_ID,ELEMENT_SET_NO,REV_AT_EPOCH,BSTAR,MEAN_MOTION_DOT,MEAN_MOTION_DDOT
COSMOS 2058,1990-010A,2026-06-13T21:25:28.694208,15.11992237,.00096072,82.4667,312.6036,12.5804,347.5665,0,U,20465,999,95677,.22976086E-3,.3975E-4,0
SL-14 R/B,1990-010B,2026-06-13T12:37:21.368064,14.83644167,.00194115,82.5016,177.3834,348.6604,11.4171,0,U,20466,999,94269,.4135196E-4,.366E-5,0
SL-14 R/B,1990-018B,2026-06-13T21:44:39.557760,14.82214237,.00172634,82.5209,133.1745,131.7783,228.4910,0,U,20511,999,93683,.4109556E-4,.352E-5,0
HST,1990-037B,2026-06-13T05:33:13.905216,15.30704754,.0001932,28.4712,107.6084,101.0971,258.9842,0,U,20580,999,78796,.19317E-3,.6133E-4,0
SL-16 R/B,1990-046B,2026-06-13T21:48:09.887328,14.15025228,.00136203,70.9995,95.8338,166.6902,193.4583,0,U,20625,999,86200,.14427051E-3,.232E-5,0
COSMOS 2084,1990-055A,2026-06-13T22:34:58.448928,15.06104058,.00055101,62.7910,7.1711,273.5813,86.4657,0,U,20663,999,95081,.15327829E-3,.205E-4,0
SL-6 R/B(2),1990-055D,2026-06-13T17:23:55.287744,15.03993046,.00400644,62.7824,287.1581,4.6309,355.5153,0,U,20666,999,95263,.12370128E-3,.1539E-4,0
SL-8 R/B,1990-078B,2026-06-13T16:59:56.861664,14.92184562,.0351715,82.9003,164.7880,50.1980,312.9645,0,U,20775,999,82360,.54632348E-3,.19398E-3,0
SL-8 R/B,1991-006B,2026-06-13T22:36:44.279424,13.77505603,.00235471,82.9424,98.4477,123.1903,308.9532,0,U,21088,999,77732,.13112406E-4,.29E-6,0
OKEAN-3,1991-039A,2026-06-13T22:45:00.484128,15.05309866,.00143497,82.5158,243.5220,10.1406,350.0107,0,U,21397,999,87951,.16728482E-3,.2425E-4,0
COSMOS 2151,1991-042A,2026-06-13T22:12:29.060640,15.00429696,.00138254,82.4960,350.8291,93.7407,266.5398,0,U,21422,999,87762,.13162539E-3,.1685E-4,0
SL-14 R/B,1991-042B,2026-06-13T21:53:04.045632,14.81900655,.00154852,82.4925,129.9670,286.7267,73.2247,0,U,21423,999,86732,.4019959E-4,.342E-5,0
ERS-1,1991-050A,2026-06-13T21:33:03.537504,14.39516093,.00307071,98.7797,185.5155,277.1780,82.5917,0,U,21574,999,82957,.12223979E-3,.337E-5,0
ARIANE 40 R/B,1991-050F,2026-06-13T17:17:37.643712,14.42955209,.00041189,98.1877,213.2724,128.7489,231.4071,0,U,21610,999,83284,.91358921E-4,.264E-5,0
INTERCOSMOS 25,1991-086A,2026-06-13T11:31:32.973600,12.12191203,.14841528,82.6052,252.0532,270.3971,72.7791,0,U,21819,999,50829,.11074759E-3,.555E-5,0
SL-8 R/B,1992-008B,2026-06-13T21:01:55.781184,13.75976063,.0033641,82.9264,196.2493,224.1876,309.5510,0,U,21876,999,72264,.1328732E-3,.144E-5,0
SL-8 R/B,1992-020B,2026-06-13T20:30:00.179136,13.75548487,.00299323,82.9306,82.3329,31.6551,32.6053,0,U,21938,999,71435,.3370536E-4,.48E-6,0
USA 81,1992-023A,2026-06-13T20:26:43.534464,14.32397417,.00027722,85.0077,75.9324,87.6389,272.5121,0,U,21949,999,10855,.50001117E-4,.155E-5,0
COSMOS 2219,1992-076A,2026-06-13T17:23:14.822304,14.14097046,.00164424,71.0576,177.3108,49.8192,310.4367,0,U,22219,999,73195,.12416921E-3,.19E-5,0
SL-16 R/B,1992-076B,2026-06-13T22:23:12.828768,14.16871274,.00146086,71.0004,345.6370,302.9282,165.3702,0,U,22220,999,73546,.35299168E-4,.23E-6,0
COSMOS 2221,1992-080A,2026-06-13T19:06:02.144160,14.96525610,.00130225,82.5030,187.0138,224.4811,135.5367,0,U,22236,999,79516,.11428444E-3,.1326E-4,0
SL-16 R/B,1992-093B,2026-06-13T17:00:54.795456,14.15462839,.00041523,71.0199,162.6934,194.2080,165.8927,0,U,22285,999,72674,-.12389357E-3,-.29E-5,0
COSMOS 2228,1992-094A,2026-06-13T22:44:09.630816,14.97576185,.00172029,82.5173,145.1460,343.5948,16.4715,0,U,22286,999,79046,.16377066E-3,.1943E-4,0
SL-16 R/B,1993-016B,2026-06-13T21:37:02.020512,14.15312117,.00104562,71.0083,13.1104,188.0439,172.0518,0,U,22566,999,71578,.19313029E-3,.329E-5,0
COSMOS 2242,1993-024A,2026-06-13T18:31:06.970944,14.96894345,.00156709,82.5179,174.8107,348.2458,11.8396,0,U,22626,999,79476,.13900505E-3,.1624E-4,0
SL-16 R/B,1993-059B,2026-06-13T17:58:47.212320,14.17247570,.00151255,70.9886,168.5540,59.9219,300.3403,0,U,22803,999,69314,.11221776E-3,.179E-5,0
ARIANE 40 R/B,1993-061H,2026-06-13T22:09:47.998944,14.32906645,.00106733,98.4819,231.8483,6.1306,354.0007,0,U,22830,999,70788,.78714536E-4,.172E-5,0
COSMOS 2278,1994-023A,2026-06-13T22:09:02.714112,14.14396920,.00105965,71.0548,333.7548,246.9956,113.0050,0,U,23087,999,65841,.14049514E-3,.222E-5,0
SL-16 R/B,1994-023B,2026-06-13T22:13:40.931616,14.15023122,.00029816,70.9994,228.7798,189.3263,170.7804,0,U,23088,999,65970,.19581908E-3,.332E-5,0
SL-16 R/B,1994-074B,2026-06-13T23:15:54.471744,14.79499900,.00050725,97.6992,191.8244,267.2030,157.9508,0,U,23343,999,70148,.58532564E-4,.388E-5,0
